[{"OBJECT_NAME":"HULIANWANG DIGUI-49","OBJECT_ID":"2025-168A","EPOCH":"2026-03-07T03:25:21.615456","MEAN_MOTION":13.29339019,"ECCENTRICITY":0.0007421,"INCLINATION":50.0048,"RA_OF_ASC_NODE":331.9601,"ARG_OF_PERICENTER":157.8695,"MEAN_ANOMALY":202.2499,"EPHEMERIS_TYPE":0,"CLASSIFICATION_TYPE":"U","NORAD_CAT_ID":65106,"ELEMENT_SET_NO":999,"REV_AT_EPOCH":2911,"BSTAR":0.00016679,"MEAN_MOTION_DOT":-4.7e-7,"MEAN_MOTION_DDOT":0},{"OBJECT_NAME":"HULIANWANG DIGUI-50","OBJECT_ID":"2025-168B","EPOCH":"2026-03-07T03:13:15.574656","MEAN_MOTION":13.29339625,"ECCENTRICITY":0.0008406,"INCLINATION":50.0018,"RA_OF_ASC_NODE":331.859,"ARG_OF_PERICENTER":143.8223,"MEAN_ANOMALY":216.3219,"EPHEMERIS_TYPE":0,"CLASSIFICATION_TYPE":"U","NORAD_CAT_ID":65107,"ELEMENT_SET_NO":999,"REV_AT_EPOCH":2911,"BSTAR":0.00016154,"MEAN_MOTION_DOT":-4.9e-7,"MEAN_MOTION_DDOT":0},{"OBJECT_NAME":"HULIANWANG DIGUI-51","OBJECT_ID":"2025-168C","EPOCH":"2026-03-07T03:01:12.785088","MEAN_MOTION":13.29339906,"ECCENTRICITY":0.0009763,"INCLINATION":50.0055,"RA_OF_ASC_NODE":331.8857,"ARG_OF_PERICENTER":143.8505,"MEAN_ANOMALY":216.3028,"EPHEMERIS_TYPE":0,"CLASSIFICATION_TYPE":"U","NORAD_CAT_ID":65108,"ELEMENT_SET_NO":999,"REV_AT_EPOCH":2911,"BSTAR":0.00017133,"MEAN_MOTION_DOT":-4.5e-7,"MEAN_MOTION_DDOT":0},{"OBJECT_NAME":"HULIANWANG DIGUI-52","OBJECT_ID":"2025-168D","EPOCH":"2026-03-07T02:49:21.026208","MEAN_MOTION":13.29338528,"ECCENTRICITY":0.0009615,"INCLINATION":50.0049,"RA_OF_ASC_NODE":331.8252,"ARG_OF_PERICENTER":156.8189,"MEAN_ANOMALY":203.3118,"EPHEMERIS_TYPE":0,"CLASSIFICATION_TYPE":"U","NORAD_CAT_ID":65109,"ELEMENT_SET_NO":999,"REV_AT_EPOCH":2911,"BSTAR":0.00017179,"MEAN_MOTION_DOT":-4.4e-7,"MEAN_MOTION_DDOT":0},{"OBJECT_NAME":"HULIANWANG DIGUI-53","OBJECT_ID":"2025-168E","EPOCH":"2026-03-07T02:37:19.184448","MEAN_MOTION":13.29338416,"ECCENTRICITY":0.0008432,"INCLINATION":50.0056,"RA_OF_ASC_NODE":331.8036,"ARG_OF_PERICENTER":146.4668,"MEAN_ANOMALY":213.6739,"EPHEMERIS_TYPE":0,"CLASSIFICATION_TYPE":"U","NORAD_CAT_ID":65110,"ELEMENT_SET_NO":999,"REV_AT_EPOCH":2911,"BSTAR":0.00017481,"MEAN_MOTION_DOT":-4.3e-7,"MEAN_MOTION_DDOT":0},{"OBJECT_NAME":"HULIANWANG DIGUI-54","OBJECT_ID":"2025-168F","EPOCH":"2026-03-07T03:49:45.488064","MEAN_MOTION":13.29335719,"ECCENTRICITY":0.0010002,"INCLINATION":50.0006,"RA_OF_ASC_NODE":331.3133,"ARG_OF_PERICENTER":151.9365,"MEAN_ANOMALY":208.2048,"EPHEMERIS_TYPE":0,"CLASSIFICATION_TYPE":"U","NORAD_CAT_ID":65111,"ELEMENT_SET_NO":999,"REV_AT_EPOCH":2912,"BSTAR":0.00018275,"MEAN_MOTION_DOT":-3.9e-7,"MEAN_MOTION_DDOT":0},{"OBJECT_NAME":"HULIANWANG DIGUI-55","OBJECT_ID":"2025-168G","EPOCH":"2026-03-07T04:13:26.304960","MEAN_MOTION":13.29339184,"ECCENTRICITY":0.0011309,"INCLINATION":50.0012,"RA_OF_ASC_NODE":331.4069,"ARG_OF_PERICENTER":147.8145,"MEAN_ANOMALY":212.3419,"EPHEMERIS_TYPE":0,"CLASSIFICATION_TYPE":"U","NORAD_CAT_ID":65112,"ELEMENT_SET_NO":999,"REV_AT_EPOCH":2912,"BSTAR":0.00019245,"MEAN_MOTION_DOT":-3.5e-7,"MEAN_MOTION_DDOT":0},{"OBJECT_NAME":"HULIANWANG DIGUI-56","OBJECT_ID":"2025-168H","EPOCH":"2026-03-07T04:01:26.270688","MEAN_MOTION":13.29338611,"ECCENTRICITY":0.0010998,"INCLINATION":50.0004,"RA_OF_ASC_NODE":331.3479,"ARG_OF_PERICENTER":169.7409,"MEAN_ANOMALY":190.3689,"EPHEMERIS_TYPE":0,"CLASSIFICATION_TYPE":"U","NORAD_CAT_ID":65113,"ELEMENT_SET_NO":999,"REV_AT_EPOCH":2912,"BSTAR":0.00020797,"MEAN_MOTION_DOT":-2.7e-7,"MEAN_MOTION_DDOT":0},{"OBJECT_NAME":"HULIANWANG DIGUI-57","OBJECT_ID":"2025-168J","EPOCH":"2026-03-07T03:37:45.909120","MEAN_MOTION":13.29335553,"ECCENTRICITY":0.0008752,"INCLINATION":50.0032,"RA_OF_ASC_NODE":331.3179,"ARG_OF_PERICENTER":160.1776,"MEAN_ANOMALY":199.9438,"EPHEMERIS_TYPE":0,"CLASSIFICATION_TYPE":"U","NORAD_CAT_ID":65114,"ELEMENT_SET_NO":999,"REV_AT_EPOCH":2913,"BSTAR":0.00018739,"MEAN_MOTION_DOT":-3.7e-7,"MEAN_MOTION_DDOT":0},{"OBJECT_NAME":"HULIANWANG DIGUI-58","OBJECT_ID":"2025-174A","EPOCH":"2026-03-07T03:00:23.973408","MEAN_MOTION":13.24421263,"ECCENTRICITY":0.0001268,"INCLINATION":86.4923,"RA_OF_ASC_NODE":286.4986,"ARG_OF_PERICENTER":89.1131,"MEAN_ANOMALY":271.0148,"EPHEMERIS_TYPE":0,"CLASSIFICATION_TYPE":"U","NORAD_CAT_ID":65164,"ELEMENT_SET_NO":999,"REV_AT_EPOCH":2728,"BSTAR":4.0842e-5,"MEAN_MOTION_DOT":3.2e-7,"MEAN_MOTION_DDOT":0},{"OBJECT_NAME":"HULIANWANG DIGUI-59","OBJECT_ID":"2025-174B","EPOCH":"2026-03-07T03:11:16.334016","MEAN_MOTION":13.24421457,"ECCENTRICITY":0.000125,"INCLINATION":86.4884,"RA_OF_ASC_NODE":286.4249,"ARG_OF_PERICENTER":88.1518,"MEAN_ANOMALY":271.9759,"EPHEMERIS_TYPE":0,"CLASSIFICATION_TYPE":"U","NORAD_CAT_ID":65165,"ELEMENT_SET_NO":999,"REV_AT_EPOCH":2728,"BSTAR":4.7626e-5,"MEAN_MOTION_DOT":3.5e-7,"MEAN_MOTION_DDOT":0},{"OBJECT_NAME":"HULIANWANG DIGUI-60","OBJECT_ID":"2025-174C","EPOCH":"2026-03-07T03:22:06.713472","MEAN_MOTION":13.24421571,"ECCENTRICITY":0.0001229,"INCLINATION":86.4915,"RA_OF_ASC_NODE":286.4923,"ARG_OF_PERICENTER":90.6172,"MEAN_ANOMALY":269.5103,"EPHEMERIS_TYPE":0,"CLASSIFICATION_TYPE":"U","NORAD_CAT_ID":65166,"ELEMENT_SET_NO":999,"REV_AT_EPOCH":2728,"BSTAR":8.619e-6,"MEAN_MOTION_DOT":1.8e-7,"MEAN_MOTION_DDOT":0},{"OBJECT_NAME":"HULIANWANG DIGUI-61","OBJECT_ID":"2025-174D","EPOCH":"2026-03-07T03:33:04.546656","MEAN_MOTION":13.24420107,"ECCENTRICITY":0.000118,"INCLINATION":86.4924,"RA_OF_ASC_NODE":286.5126,"ARG_OF_PERICENTER":90.171,"MEAN_ANOMALY":269.9559,"EPHEMERIS_TYPE":0,"CLASSIFICATION_TYPE":"U","NORAD_CAT_ID":65167,"ELEMENT_SET_NO":999,"REV_AT_EPOCH":2728,"BSTAR":2.9155e-5,"MEAN_MOTION_DOT":2.7e-7,"MEAN_MOTION_DDOT":0},{"OBJECT_NAME":"HULIANWANG DIGUI-62","OBJECT_ID":"2025-174E","EPOCH":"2026-03-07T03:43:53.109120","MEAN_MOTION":13.24421444,"ECCENTRICITY":0.0001197,"INCLINATION":86.4865,"RA_OF_ASC_NODE":286.3983,"ARG_OF_PERICENTER":92.9291,"MEAN_ANOMALY":267.198,"EPHEMERIS_TYPE":0,"CLASSIFICATION_TYPE":"U","NORAD_CAT_ID":65168,"ELEMENT_SET_NO":999,"REV_AT_EPOCH":2728,"BSTAR":6.5646e-5,"MEAN_MOTION_DOT":4.3e-7,"MEAN_MOTION_DDOT":0},{"OBJECT_NAME":"HULIANWANG DIGUI-63","OBJECT_ID":"2025-174F","EPOCH":"2026-03-07T03:54:44.522784","MEAN_MOTION":13.24421844,"ECCENTRICITY":0.0001206,"INCLINATION":86.4918,"RA_OF_ASC_NODE":286.5061,"ARG_OF_PERICENTER":89.9576,"MEAN_ANOMALY":270.1697,"EPHEMERIS_TYPE":0,"CLASSIFICATION_TYPE":"U","NORAD_CAT_ID":65169,"ELEMENT_SET_NO":999,"REV_AT_EPOCH":2728,"BSTAR":0.0001054,"MEAN_MOTION_DOT":6.0e-7,"MEAN_MOTION_DDOT":0},{"OBJECT_NAME":"HULIANWANG DIGUI-64","OBJECT_ID":"2025-174G","EPOCH":"2026-03-07T04:05:37.426848","MEAN_MOTION":13.24421855,"ECCENTRICITY":0.0001197,"INCLINATION":86.4876,"RA_OF_ASC_NODE":286.4282,"ARG_OF_PERICENTER":92.3945,"MEAN_ANOMALY":267.7326,"EPHEMERIS_TYPE":0,"CLASSIFICATION_TYPE":"U","NORAD_CAT_ID":65170,"ELEMENT_SET_NO":999,"REV_AT_EPOCH":2728,"BSTAR":9.5967e-5,"MEAN_MOTION_DOT":5.6e-7,"MEAN_MOTION_DDOT":0}]
