HULIANWANG DIGUI-49     
1 65106U 25168A   26066.14261129 -.00000047  00000+0  16679-3 0  9999
2 65106  50.0048 331.9601 0007421 157.8695 202.2499 13.29339019 29116
HULIANWANG DIGUI-50     
1 65107U 25168B   26066.13420804 -.00000049  00000+0  16154-3 0  9996
2 65107  50.0018 331.8590 0008406 143.8223 216.3219 13.29339625 29115
HULIANWANG DIGUI-51     
1 65108U 25168C   26066.12584242 -.00000045  00000+0  17133-3 0  9997
2 65108  50.0055 331.8857 0009763 143.8505 216.3028 13.29339906 29113
HULIANWANG DIGUI-52     
1 65109U 25168D   26066.11760447 -.00000044  00000+0  17179-3 0  9999
2 65109  50.0049 331.8252 0009615 156.8189 203.3118 13.29338528 29119
HULIANWANG DIGUI-53     
1 65110U 25168E   26066.10924982 -.00000043  00000+0  17481-3 0  9991
2 65110  50.0056 331.8036 0008432 146.4668 213.6739 13.29338416 29111
HULIANWANG DIGUI-54     
1 65111U 25168F   26066.15955426 -.00000039  00000+0  18275-3 0  9991
2 65111  50.0006 331.3133 0010002 151.9365 208.2048 13.29335719 29128
HULIANWANG DIGUI-55     
1 65112U 25168G   26066.17599890 -.00000035  00000+0  19245-3 0  9997
2 65112  50.0012 331.4069 0011309 147.8145 212.3419 13.29339184 29124
HULIANWANG DIGUI-56     
1 65113U 25168H   26066.16766517 -.00000027  00000+0  20797-3 0  9994
2 65113  50.0004 331.3479 0010998 169.7409 190.3689 13.29338611 29127
HULIANWANG DIGUI-57     
1 65114U 25168J   26066.15122580 -.00000037  00000+0  18739-3 0  9994
2 65114  50.0032 331.3179 0008752 160.1776 199.9438 13.29335553 29133
HULIANWANG DIGUI-58     
1 65164U 25174A   26066.12527747  .00000032  00000+0  40842-4 0  9992
2 65164  86.4923 286.4986 0001268  89.1131 271.0148 13.24421263 27289
HULIANWANG DIGUI-59     
1 65165U 25174B   26066.13282794  .00000035  00000+0  47626-4 0  9994
2 65165  86.4884 286.4249 0001250  88.1518 271.9759 13.24421457 27289
HULIANWANG DIGUI-60     
1 65166U 25174C   26066.14035548  .00000018  00000+0  86190-5 0  9990
2 65166  86.4915 286.4923 0001229  90.6172 269.5103 13.24421571 27287
HULIANWANG DIGUI-61     
1 65167U 25174D   26066.14796929  .00000027  00000+0  29155-4 0  9995
2 65167  86.4924 286.5126 0001180  90.1710 269.9559 13.24420107 27286
HULIANWANG DIGUI-62     
1 65168U 25174E   26066.15547580  .00000043  00000+0  65646-4 0  9997
2 65168  86.4865 286.3983 0001197  92.9291 267.1980 13.24421444 27285
HULIANWANG DIGUI-63     
1 65169U 25174F   26066.16301531  .00000060  00000+0  10540-3 0  9994
2 65169  86.4918 286.5061 0001206  89.9576 270.1697 13.24421844 27280
HULIANWANG DIGUI-64     
1 65170U 25174G   26066.17057207  .00000056  00000+0  95967-4 0  9997
2 65170  86.4876 286.4282 0001197  92.3945 267.7326 13.24421855 27289
